INMARSAT 4-F2 (SOUTHPA*)
1 28899U 05044A   26101.26392264 -.00000256  00000+0  00000+0 0  9995
2 28899   5.0058  43.7518 0003584 358.8574  35.3820  1.00270891 74857
GSAT-8 (GAGAN/PRN 127)  
1 37605U 11022A   26101.66301926  .00000088  00000+0  00000+0 0  9994
2 37605   1.9581  82.6104 0005267 225.2263 185.8055  1.00272756 52559
LUCH 5A (SDCM/PRN 140)  
1 37951U 11074B   26101.69632264 -.00000042  00000+0  00000+0 0  9991
2 37951   8.5847  74.7703 0002918 291.5129 251.2203  1.00271770 52384
SES-5 (EGNOS/PRN 136)   
1 38652U 12036A   26101.30777616  .00000035  00000+0  00000+0 0  9999
2 38652   0.0590 302.6364 0001840  82.7207 289.9449  1.00271508 43784
GSAT-10 (GAGAN/PRN 128) 
1 38779U 12051B   26101.80314462 -.00000163  00000+0  00000+0 0  9990
2 38779   0.0659 265.2081 0006597 174.5969 132.3485  1.00272261 49435
LUCH 5B (SDCM/PRN 125)  
1 38977U 12061A   26101.66004355 -.00000129  00000+0  00000+0 0  9994
2 38977  10.3411  50.5265 0001877 219.9648 150.7206  1.00273248 48944
ASTRA 5B (EGNOS/PRN 123)
1 39617U 14011B   26101.86001214  .00000138  00000+0  00000+0 0  9995
2 39617   0.0788 301.9633 0003113  58.4680 172.7583  1.00269858 44005
LUCH 5V (SDCM/PRN 141)  
1 39727U 14023A   26101.87627557 -.00000262  00000+0  00000+0 0  9994
2 39727   4.9699  70.3862 0003058 329.5587 210.2708  1.00268066 43699
GSAT-15 (GAGAN/PRN 139) 
1 41028U 15065A   26101.86968623 -.00000256  00000+0  00000+0 0  9992
2 41028   0.0135 139.1186 0003032 272.3862 195.1787  1.00273139 38132
EUTELSAT 117 WEST B (W*)
1 41589U 16038B   26100.79982937 -.00000010  00000+0  00000+0 0  9998
2 41589   0.0116  68.6705 0000302 211.0329  90.2677  1.00271858 35980
SES-15 (WAAS/PRN 133)   
1 42709U 17026A   26101.70897602  .00000061  00000+0  00000+0 0  9992
2 42709   0.0290 323.0569 0000670  66.8722 296.0776  1.00270694  6762
QZS-2 (QZSS/PRN 194)    
1 42738U 17028A   26101.26140928 -.00000188  00000+0  00000+0 0  9990
2 42738  39.5333 244.1284 0741517 270.6769 278.1624  1.00251789  6952
QZS-3 (QZSS/PRN 199)    
1 42917U 17048A   26101.85530552 -.00000347  00000+0  00000+0 0  9999
2 42917   0.0752 132.1213 0002072 254.9329 247.9017  1.00267499 31593
QZS-4 (QZSS/PRN 195)    
1 42965U 17062A   26101.54669081 -.00000294  00000+0  00000+0 0  9995
2 42965  40.1487 344.3363 0746128 270.5504 282.1396  1.00270486 31136
BEIDOU-3 G1 (PRN 130)   
1 43683U 18085A   26101.69372263 -.00000081  00000+0  00000+0 0  9992
2 43683   2.9050  99.1757 0012840 291.5554 212.7572  1.00649745 27399
EUTELSAT 5 WEST B (EGN*)
1 44624U 19067A   26101.73358947 -.00000041  00000+0  00000+0 0  9993
2 44624   0.0693  22.2723 0003395   7.7439  69.0257  1.00271782 23774
BEIDOU-3 G2 (PRN 144)   
1 45344U 20017A   26101.82174951 -.00000136  00000+0  00000+0 0  9996
2 45344   2.7307  46.2448 0002910 345.6139 184.0532  1.00271659 22594
BEIDOU-3 G3 (PRN 143)   
1 45807U 20040A   26101.84253406 -.00000349  00000+0  00000+0 0  9997
2 45807   2.2835  67.2322 0004728 333.1991 213.4030  1.00266418 21406
GALAXY 30 (WAAS/PRN 135)
1 46114U 20056C   26101.64651206  .00000000  00000+0  00000+0 0  9997
2 46114   0.0191 206.1589 0002235 184.3910 277.0569  1.00270609 20629
QZS-1R (QZSS/PRN 196)   
1 49336U 21096A   26101.26409596 -.00000195  00000+0  00000+0 0  9998
2 49336  37.3246  80.5693 0750450 270.5015  79.0898  1.00278590 16330
QZS-6 (QZSS/PRN 200)    
1 62876U 25023A   26101.64342044 -.00000232  00000+0  00000+0 0  9994
2 62876   0.0197 284.9980 0002073 108.6611 128.3783  1.00271824  4295
